[{"OBJECT_NAME":"STARLINK-35159","OBJECT_ID":"2025-195D","EPOCH":"2026-03-09T17:00:33.960096","MEAN_MOTION":15.30208225,"ECCENTRICITY":0.00011127,"INCLINATION":53.1613,"RA_OF_ASC_NODE":258.3015,"ARG_OF_PERICENTER":125.8283,"MEAN_ANOMALY":234.2822,"EPHEMERIS_TYPE":0,"CLASSIFICATION_TYPE":"U","NORAD_CAT_ID":65461,"ELEMENT_SET_NO":999,"REV_AT_EPOCH":2999,"BSTAR":0.00077076455,"MEAN_MOTION_DOT":0.00022544,"MEAN_MOTION_DDOT":0},{"OBJECT_NAME":"OBJECT BE","OBJECT_ID":"2025-313BE","EPOCH":"2026-03-09T16:43:59.380320","MEAN_MOTION":15.29801687,"ECCENTRICITY":0.00072083,"INCLINATION":97.3989,"RA_OF_ASC_NODE":145.3568,"ARG_OF_PERICENTER":335.3714,"MEAN_ANOMALY":24.7181,"EPHEMERIS_TYPE":0,"CLASSIFICATION_TYPE":"U","NORAD_CAT_ID":67482,"ELEMENT_SET_NO":999,"REV_AT_EPOCH":797,"BSTAR":0.0026504328,"MEAN_MOTION_DOT":0.00077178,"MEAN_MOTION_DDOT":0}]
